UNKNOWN                 
1 81301U          26032.14734417  .00000329  00000+0  39768-3 0  9996
2 81301  66.7579 175.4712 0090906 200.1896 340.7495 13.76743071613294
UNKNOWN                 
1 81311U          26054.65369787  .00000599  00000+0  13165-3 0  9993
2 81311  98.7190 120.3330 0130110 261.6846 252.1581 14.56660451650206
UNKNOWN                 
1 81317U          26051.92203488  .00000159  00000+0  37066-3 0  9999
2 81317  67.1387  22.0915 0215102 344.9404  44.6015 13.38044196598025
UNKNOWN                 
1 81323U          26035.93048394  .00017936  00000+0  22424-2 0  9994
2 81323  65.7483 236.9737 0339208 285.0241  71.3555 14.49245811120903
UNKNOWN                 
1 81329U          26044.91984193  .00005241  00000+0  18430-2 0  9992
2 81329  65.8273 345.6388 0834698   1.3055 358.9898 13.22567775586436
UNKNOWN                 
1 81343U          26054.27419176  .00007828  00000+0  54908-3 0  9996
2 81343  85.8745 160.5732 0008142  15.8912 344.2575 15.05014116465226
UNKNOWN                 
1 81359U          26053.92107535  .00000703  00000+0  72217-3 0  9995
2 81359  66.7959 239.2109 0119697 276.9728  81.7743 13.78958392615434
UNKNOWN                 
1 81366U          26046.02176020  .00001205  00000+0  45120-3 0  9992
2 81366  65.8829 279.8797 0711877  50.2706 315.8897 13.45341767 74603
UNKNOWN                 
1 81371U          26053.75944018  .00004908  00000+0  77873-3 0  9999
2 81371  98.8097 160.9919 0070151 139.8560 220.7857 14.71022679652423
UNKNOWN                 
1 81386U          26029.88772037  .00006812  00000+0  22178-2 0  9995
2 81386  71.0468 252.0345 0086507   7.9389 352.3091 14.36919065631150
UNKNOWN                 
1 81392U          26027.24031549  .00004787  00000+0  44699-2 0  9997
2 81392 100.4023  25.0693 0041455 279.1497 148.4912 13.82040403608466
UNKNOWN                 
1 81427U          26051.12108177  .00000512  00000+0  32149-3 0  9992
2 81427  98.7435 296.0146 0082906 202.4742 157.2787 14.07076520561522
