CCSDS_OMM_VERS = 2.0
CREATION_DATE  = 
ORIGINATOR     = 

OBJECT_NAME    = UNKNOWN
OBJECT_ID      = 
CENTER_NAME    = EARTH
REF_FRAME      = TEME
TIME_SYSTEM    = UTC
MEAN_ELEMENT_THEORY = SGP/SGP4

EPOCH          = 2026-02-01T03:32:10.536288
MEAN_MOTION    = 13.76743071
ECCENTRICITY   = .0090906
INCLINATION    = 66.7579
RA_OF_ASC_NODE = 175.4712
ARG_OF_PERICENTER = 200.1896
MEAN_ANOMALY   = 340.7495

EPHEMERIS_TYPE = 0
CLASSIFICATION_TYPE = U
NORAD_CAT_ID   = 81301
ELEMENT_SET_NO = 999
REV_AT_EPOCH   = 61329
BSTAR          = .39768E-3
MEAN_MOTION_DOT = .329E-5
MEAN_MOTION_DDOT = 0

CCSDS_OMM_VERS = 2.0
CREATION_DATE  = 
ORIGINATOR     = 

OBJECT_NAME    = UNKNOWN
OBJECT_ID      = 
CENTER_NAME    = EARTH
REF_FRAME      = TEME
TIME_SYSTEM    = UTC
MEAN_ELEMENT_THEORY = SGP/SGP4

EPOCH          = 2026-02-23T15:41:19.495968
MEAN_MOTION    = 14.56660451
ECCENTRICITY   = .013011
INCLINATION    = 98.7190
RA_OF_ASC_NODE = 120.3330
ARG_OF_PERICENTER = 261.6846
MEAN_ANOMALY   = 252.1581

EPHEMERIS_TYPE = 0
CLASSIFICATION_TYPE = U
NORAD_CAT_ID   = 81311
ELEMENT_SET_NO = 999
REV_AT_EPOCH   = 65020
BSTAR          = .13165E-3
MEAN_MOTION_DOT = .599E-5
MEAN_MOTION_DDOT = 0

CCSDS_OMM_VERS = 2.0
CREATION_DATE  = 
ORIGINATOR     = 

OBJECT_NAME    = UNKNOWN
OBJECT_ID      = 
CENTER_NAME    = EARTH
REF_FRAME      = TEME
TIME_SYSTEM    = UTC
MEAN_ELEMENT_THEORY = SGP/SGP4

EPOCH          = 2026-02-20T22:07:43.813632
MEAN_MOTION    = 13.38044196
ECCENTRICITY   = .0215102
INCLINATION    = 67.1387
RA_OF_ASC_NODE = 22.0915
ARG_OF_PERICENTER = 344.9404
MEAN_ANOMALY   = 44.6015

EPHEMERIS_TYPE = 0
CLASSIFICATION_TYPE = U
NORAD_CAT_ID   = 81317
ELEMENT_SET_NO = 999
REV_AT_EPOCH   = 59802
BSTAR          = .37066E-3
MEAN_MOTION_DOT = .159E-5
MEAN_MOTION_DDOT = 0

CCSDS_OMM_VERS = 2.0
CREATION_DATE  = 
ORIGINATOR     = 

OBJECT_NAME    = UNKNOWN
OBJECT_ID      = 
CENTER_NAME    = EARTH
REF_FRAME      = TEME
TIME_SYSTEM    = UTC
MEAN_ELEMENT_THEORY = SGP/SGP4

EPOCH          = 2026-02-04T22:19:53.812416
MEAN_MOTION    = 14.49245811
ECCENTRICITY   = .0339208
INCLINATION    = 65.7483
RA_OF_ASC_NODE = 236.9737
ARG_OF_PERICENTER = 285.0241
MEAN_ANOMALY   = 71.3555

EPHEMERIS_TYPE = 0
CLASSIFICATION_TYPE = U
NORAD_CAT_ID   = 81323
ELEMENT_SET_NO = 999
REV_AT_EPOCH   = 12090
BSTAR          = .22424E-2
MEAN_MOTION_DOT = .17936E-3
MEAN_MOTION_DDOT = 0

CCSDS_OMM_VERS = 2.0
CREATION_DATE  = 
ORIGINATOR     = 

OBJECT_NAME    = UNKNOWN
OBJECT_ID      = 
CENTER_NAME    = EARTH
REF_FRAME      = TEME
TIME_SYSTEM    = UTC
MEAN_ELEMENT_THEORY = SGP/SGP4

EPOCH          = 2026-02-13T22:04:34.342752
MEAN_MOTION    = 13.22567775
ECCENTRICITY   = .0834698
INCLINATION    = 65.8273
RA_OF_ASC_NODE = 345.6388
ARG_OF_PERICENTER = 1.3055
MEAN_ANOMALY   = 358.9898

EPHEMERIS_TYPE = 0
CLASSIFICATION_TYPE = U
NORAD_CAT_ID   = 81329
ELEMENT_SET_NO = 999
REV_AT_EPOCH   = 58643
BSTAR          = .1843E-2
MEAN_MOTION_DOT = .5241E-4
MEAN_MOTION_DDOT = 0

CCSDS_OMM_VERS = 2.0
CREATION_DATE  = 
ORIGINATOR     = 

OBJECT_NAME    = UNKNOWN
OBJECT_ID      = 
CENTER_NAME    = EARTH
REF_FRAME      = TEME
TIME_SYSTEM    = UTC
MEAN_ELEMENT_THEORY = SGP/SGP4

EPOCH          = 2026-02-23T06:34:50.168064
MEAN_MOTION    = 15.05014116
ECCENTRICITY   = .0008142
INCLINATION    = 85.8745
RA_OF_ASC_NODE = 160.5732
ARG_OF_PERICENTER = 15.8912
MEAN_ANOMALY   = 344.2575

EPHEMERIS_TYPE = 0
CLASSIFICATION_TYPE = U
NORAD_CAT_ID   = 81343
ELEMENT_SET_NO = 999
REV_AT_EPOCH   = 46522
BSTAR          = .54908E-3
MEAN_MOTION_DOT = .7828E-4
MEAN_MOTION_DDOT = 0

CCSDS_OMM_VERS = 2.0
CREATION_DATE  = 
ORIGINATOR     = 

OBJECT_NAME    = UNKNOWN
OBJECT_ID      = 
CENTER_NAME    = EARTH
REF_FRAME      = TEME
TIME_SYSTEM    = UTC
MEAN_ELEMENT_THEORY = SGP/SGP4

EPOCH          = 2026-02-22T22:06:20.910240
MEAN_MOTION    = 13.78958392
ECCENTRICITY   = .0119697
INCLINATION    = 66.7959
RA_OF_ASC_NODE = 239.2109
ARG_OF_PERICENTER = 276.9728
MEAN_ANOMALY   = 81.7743

EPHEMERIS_TYPE = 0
CLASSIFICATION_TYPE = U
NORAD_CAT_ID   = 81359
ELEMENT_SET_NO = 999
REV_AT_EPOCH   = 61543
BSTAR          = .72217E-3
MEAN_MOTION_DOT = .703E-5
MEAN_MOTION_DDOT = 0

CCSDS_OMM_VERS = 2.0
CREATION_DATE  = 
ORIGINATOR     = 

OBJECT_NAME    = UNKNOWN
OBJECT_ID      = 
CENTER_NAME    = EARTH
REF_FRAME      = TEME
TIME_SYSTEM    = UTC
MEAN_ELEMENT_THEORY = SGP/SGP4

EPOCH          = 2026-02-15T00:31:20.081280
MEAN_MOTION    = 13.45341767
ECCENTRICITY   = .0711877
INCLINATION    = 65.8829
RA_OF_ASC_NODE = 279.8797
ARG_OF_PERICENTER = 50.2706
MEAN_ANOMALY   = 315.8897

EPHEMERIS_TYPE = 0
CLASSIFICATION_TYPE = U
NORAD_CAT_ID   = 81366
ELEMENT_SET_NO = 999
REV_AT_EPOCH   = 7460
BSTAR          = .4512E-3
MEAN_MOTION_DOT = .1205E-4
MEAN_MOTION_DDOT = 0

CCSDS_OMM_VERS = 2.0
CREATION_DATE  = 
ORIGINATOR     = 

OBJECT_NAME    = UNKNOWN
OBJECT_ID      = 
CENTER_NAME    = EARTH
REF_FRAME      = TEME
TIME_SYSTEM    = UTC
MEAN_ELEMENT_THEORY = SGP/SGP4

EPOCH          = 2026-02-22T18:13:35.631552
MEAN_MOTION    = 14.71022679
ECCENTRICITY   = .0070151
INCLINATION    = 98.8097
RA_OF_ASC_NODE = 160.9919
ARG_OF_PERICENTER = 139.8560
MEAN_ANOMALY   = 220.7857

EPHEMERIS_TYPE = 0
CLASSIFICATION_TYPE = U
NORAD_CAT_ID   = 81371
ELEMENT_SET_NO = 999
REV_AT_EPOCH   = 65242
BSTAR          = .77873E-3
MEAN_MOTION_DOT = .4908E-4
MEAN_MOTION_DDOT = 0

CCSDS_OMM_VERS = 2.0
CREATION_DATE  = 
ORIGINATOR     = 

OBJECT_NAME    = UNKNOWN
OBJECT_ID      = 
CENTER_NAME    = EARTH
REF_FRAME      = TEME
TIME_SYSTEM    = UTC
MEAN_ELEMENT_THEORY = SGP/SGP4

EPOCH          = 2026-01-29T21:18:19.039968
MEAN_MOTION    = 14.36919065
ECCENTRICITY   = .0086507
INCLINATION    = 71.0468
RA_OF_ASC_NODE = 252.0345
ARG_OF_PERICENTER = 7.9389
MEAN_ANOMALY   = 352.3091

EPHEMERIS_TYPE = 0
CLASSIFICATION_TYPE = U
NORAD_CAT_ID   = 81386
ELEMENT_SET_NO = 999
REV_AT_EPOCH   = 63115
BSTAR          = .22178E-2
MEAN_MOTION_DOT = .6812E-4
MEAN_MOTION_DDOT = 0

CCSDS_OMM_VERS = 2.0
CREATION_DATE  = 
ORIGINATOR     = 

OBJECT_NAME    = UNKNOWN
OBJECT_ID      = 
CENTER_NAME    = EARTH
REF_FRAME      = TEME
TIME_SYSTEM    = UTC
MEAN_ELEMENT_THEORY = SGP/SGP4

EPOCH          = 2026-01-27T05:46:03.258336
MEAN_MOTION    = 13.82040403
ECCENTRICITY   = .0041455
INCLINATION    = 100.4023
RA_OF_ASC_NODE = 25.0693
ARG_OF_PERICENTER = 279.1497
MEAN_ANOMALY   = 148.4912

EPHEMERIS_TYPE = 0
CLASSIFICATION_TYPE = U
NORAD_CAT_ID   = 81392
ELEMENT_SET_NO = 999
REV_AT_EPOCH   = 60846
BSTAR          = .44699E-2
MEAN_MOTION_DOT = .4787E-4
MEAN_MOTION_DDOT = 0

CCSDS_OMM_VERS = 2.0
CREATION_DATE  = 
ORIGINATOR     = 

OBJECT_NAME    = UNKNOWN
OBJECT_ID      = 
CENTER_NAME    = EARTH
REF_FRAME      = TEME
TIME_SYSTEM    = UTC
MEAN_ELEMENT_THEORY = SGP/SGP4

EPOCH          = 2026-02-20T02:54:21.464928
MEAN_MOTION    = 14.07076520
ECCENTRICITY   = .0082906
INCLINATION    = 98.7435
RA_OF_ASC_NODE = 296.0146
ARG_OF_PERICENTER = 202.4742
MEAN_ANOMALY   = 157.2787

EPHEMERIS_TYPE = 0
CLASSIFICATION_TYPE = U
NORAD_CAT_ID   = 81427
ELEMENT_SET_NO = 999
REV_AT_EPOCH   = 56152
BSTAR          = .32149E-3
MEAN_MOTION_DOT = .512E-5
MEAN_MOTION_DDOT = 0

